NORAD_CAT_ID,OBJECT_NAME,OBJECT_TYPE,EPOCH,MEAN_MOTION,ECCENTRICITY,INCLINATION,RA_OF_ASC_NODE,ARG_OF_PERICENTER,MEAN_ANOMALY,BSTAR,MEAN_MOTION_DOT,MEAN_MOTION_DDOT,TLE_LINE0,TLE_LINE1,TLE_LINE2,SEMIMAJOR_AXIS,PERIOD,APOGEE,PERIGEE,DECAYED
52999.0,STARLINK-4217,PAYLOAD,2022-11-03 03:32:58,15.08832908,0.0001541999999999,53.2179,182.31,71.4393,288.6766,-9.77e-06,-4.43e-06,0.0,0 STARLINK-4217,1 52999U 22076P   22307.14789976 -.00000443  00000-0 -97700-5 0  9997,2 52999  53.2179 182.3100 0001542  71.4393 288.6766 15.08832908 18283,6917.901999999999,95.438,540.8340000000002,538.7,0.0
52999.0,STARLINK-4217,PAYLOAD,2022-11-03 17:51:25,15.08843593,0.0001443,53.218,179.6334,74.343,285.7721,0.00022121,3.235e-05,0.0,0 STARLINK-4217,1 52999U 22076P   22307.74405074  .00003235  00000-0  22121-3 0  9990,2 52999  53.2180 179.6334 0001443  74.3430 285.7721 15.08843593 18840,6917.869000000002,95.437,540.7330000000002,538.736,0.0
52999.0,STARLINK-4217,PAYLOAD,2022-11-03 21:02:12,15.08854162,0.0001489,53.2174,179.03900000000004,71.6118,288.5036,0.00053667,8.267e-05,0.0,0 STARLINK-4217,1 52999U 22076P   22307.87653251  .00008267  00000-0  53667-3 0  9995,2 52999  53.2174 179.0390 0001489  71.6118 288.5036 15.08854162 18396,6917.837,95.437,540.732,538.672,0.0
52999.0,STARLINK-4217,PAYLOAD,2022-11-04 01:48:21,15.08868941,0.0001447,53.2173,178.14700000000005,69.2313,290.8834,0.0010696,0.00016789,0.0,0 STARLINK-4217,1 52999U 22076P   22308.07525054  .00016789  00000-0  10696-2 0  9999,2 52999  53.2173 178.1470 0001447  69.2313 290.8834 15.08868941 18895,6917.792,95.436,540.658,538.656,0.0
52999.0,STARLINK-4217,PAYLOAD,2022-11-04 08:09:53,15.08879666,0.0001499,53.2174,176.9573,69.7145,290.4008,0.0010065,0.00015784,0.0,0 STARLINK-4217,1 52999U 22076P   22308.34020411  .00015784  00000-0  10065-2 0  9990,2 52999  53.2174 176.9573 0001499  69.7145 290.4008 15.08879666 18469,6917.759,95.435,540.661,538.587,0.0
52999.0,STARLINK-4217,PAYLOAD,2022-11-04 17:42:12,15.08873543,0.0001460999999999,53.2172,175.1734,74.0115,286.1038,0.00068907,0.00010706,0.0,0 STARLINK-4217,1 52999U 22076P   22308.73764229  .00010706  00000-0  68907-3 0  9993,2 52999  53.2172 175.1734 0001461  74.0115 286.1038 15.08873543 18993,6917.778,95.435,540.654,538.632,0.0
52999.0,STARLINK-4217,PAYLOAD,2022-11-05 01:39:07,15.08851393,0.0001459,53.2169,173.6863,68.3527,291.7621,-0.00018373,-3.212e-05,0.0,0 STARLINK-4217,1 52999U 22076P   22309.06884168 -.00003212  00000-0 -18373-3 0  9993,2 52999  53.2169 173.6863 0001459  68.3527 291.7621 15.08851393 18578,6917.846,95.437,540.72,538.701,0.0
52999.0,STARLINK-4217,PAYLOAD,2022-11-05 23:54:34,15.08794565,0.0002561,53.216,169.5202,65.2466,294.8793,-4.1038e-05,-9.41e-06,0.0,0 STARLINK-4217,1 52999U 22076P   22309.99622765 -.00000941  00000-0 -41038-4 0  9999,2 52999  53.2160 169.5202 0002561  65.2466 294.8793 15.08794565 19182,6918.019,95.44,541.656,538.113,0.0
52999.0,STARLINK-4217,PAYLOAD,2022-11-06 20:34:35,15.0882959,0.0001573,53.2167,165.6575,71.1778,288.9384,0.0001434,1.994e-05,0.0,0 STARLINK-4217,1 52999U 22076P   22310.85735304  .00001994  00000-0  14340-3 0  9992,2 52999  53.2167 165.6575 0001573  71.1778 288.9384 15.08829590 19315,6917.9119999999975,95.438,540.865,538.689,0.0
52999.0,STARLINK-4217,PAYLOAD,2022-11-07 20:25:23,15.08832094,0.0001685,53.2174,161.1978,73.5214,286.5963,0.00046516,7.121e-05,0.0,0 STARLINK-4217,1 52999U 22076P   22311.85096517  .00007121  00000-0  46516-3 0  9997,2 52999  53.2174 161.1978 0001685  73.5214 286.5963 15.08832094 18999,6917.905,95.438,540.935,538.604,0.0
52999.0,STARLINK-4217,PAYLOAD,2022-11-08 07:33:04,15.0884354,0.0001645,53.2171,159.1158,72.1104,288.0067,0.00046491,7.119e-05,0.0,0 STARLINK-4217,1 52999U 22076P   22312.31463959  .00007119  00000-0  46491-3 0  9996,2 52999  53.2171 159.1158 0001645  72.1104 288.0067 15.08843540 19533,6917.87,95.437,540.873,538.597,0.0
52999.0,STARLINK-4217,PAYLOAD,2022-11-09 01:02:17,15.08869992,0.0001631,53.2166,155.8448,70.0823,290.0345,0.00045005,6.888e-05,0.0,0 STARLINK-4217,1 52999U 22076P   22313.04326199  .00006888  00000-0  45005-3 0  9993,2 52999  53.2166 155.8448 0001631  70.0823 290.0345 15.08869992 19645,6917.7890000000025,95.436,540.7819999999998,538.525,0.0
52999.0,STARLINK-4217,PAYLOAD,2022-11-09 20:06:55,15.08838673,0.0001356,53.2162,152.2761,45.8699,314.2405,-0.00037416,-6.237e-05,0.0,0 STARLINK-4217,1 52999U 22076P   22313.83814371 -.00006237  00000-0 -37416-3 0  9991,2 52999  53.2162 152.2761 0001356  45.8699 314.2405 15.08838673 19766,6917.884,95.438,540.688,538.811,0.0
52999.0,STARLINK-4217,PAYLOAD,2022-11-10 13:36:11,15.08811531,0.0001564,53.2163,149.0059,65.7635,294.3521,0.00034616,5.221e-05,0.0,0 STARLINK-4217,1 52999U 22076P   22314.56680009  .00005221  00000-0  34616-3 0  9990,2 52999  53.2163 149.0059 0001564  65.7635 294.3521 15.08811531 19405,6917.967,95.439,540.914,538.75,0.0
52999.0,STARLINK-4217,PAYLOAD,2022-11-10 18:22:21,15.08817456,0.0001511,53.2162,148.1134,66.8464,293.2688,8.127899999999999e-05,1.005e-05,0.0,0 STARLINK-4217,1 52999U 22076P   22314.76552162  .00001005  00000-0  81279-4 0  9994,2 52999  53.2162 148.1134 0001511  66.8464 293.2688 15.08817456 19901,6917.949000000001,95.439,540.86,538.769,0.0
52999.0,STARLINK-4217,PAYLOAD,2022-11-10 19:57:44,15.08818138,0.0001579,53.2164,147.8165,70.1382,289.978,0.00014756,2.060000000000001e-05,0.0,0 STARLINK-4217,1 52999U 22076P   22314.83176295  .00002060  00000-0  14756-3 0  9998,2 52999  53.2164 147.8165 0001579  70.1382 289.9780 15.08818138 19446,6917.946999999999,95.439,540.905,538.72,0.0
52999.0,STARLINK-4217,PAYLOAD,2022-11-11 11:51:36,15.08823401,0.0001533,53.2164,144.8428,69.1107,291.0049,0.00040995,6.239e-05,0.0,0 STARLINK-4217,1 52999U 22076P   22315.49417313  .00006239  00000-0  40995-3 0  9996,2 52999  53.2164 144.8428 0001533  69.1107 291.0049 15.08823401 19540,6917.931,95.439,540.857,538.736,0.0
52999.0,STARLINK-4217,PAYLOAD,2022-11-11 19:48:32,15.08827676,0.0001538,53.2164,143.3561,69.297,290.8187,0.00040967,6.236e-05,0.0,0 STARLINK-4217,1 52999U 22076P   22315.82537594  .00006236  00000-0  40967-3 0  9993,2 52999  53.2164 143.3561 0001538  69.2970 290.8187 15.08827676 20063,6917.918000000002,95.438,540.847,538.719,0.0
52999.0,STARLINK-4217,PAYLOAD,2022-11-11 21:23:55,15.08828997,0.0001536,53.2164,143.0588,69.2535,290.8622,0.00041972,6.396e-05,0.0,0 STARLINK-4217,1 52999U 22076P   22315.89161625  .00006396  00000-0  41972-3 0  9992,2 52999  53.2164 143.0588 0001536  69.2535 290.8622 15.08828997 19603,6917.9140000000025,95.438,540.842,538.716,0.0
52999.0,STARLINK-4217,PAYLOAD,2022-11-12 11:42:23,15.08841767,0.0001556,53.2163,140.3821,69.7448,290.3711,0.00051871,7.977e-05,0.0,0 STARLINK-4217,1 52999U 22076P   22316.48777637  .00007977  00000-0  51871-3 0  9999,2 52999  53.2163 140.3821 0001556  69.7448 290.3711 15.08841767 19695,6917.875,95.437,540.816,538.664,0.0
52999.0,STARLINK-4217,PAYLOAD,2022-11-12 18:03:55,15.08866222,0.0001561999999999,53.2166,139.1919,65.6015,294.514,0.0010359,0.00016249,0.0,0 STARLINK-4217,1 52999U 22076P   22316.75272850  .00016249  00000-0  10359-2 0  9993,2 52999  53.2166 139.1919 0001562  65.6015 294.5140 15.08866222 20208,6917.8,95.436,540.746,538.585,0.0
52999.0,STARLINK-4217,PAYLOAD,2022-11-12 19:39:18,15.0886595,0.000153,53.2165,138.8948,65.7339,294.3812,0.00091989,0.00014393,0.0,0 STARLINK-4217,1 52999U 22076P   22316.81896745  .00014393  00000-0  91989-3 0  9992,2 52999  53.2165 138.8948 0001530  65.7339 294.3812 15.08865950 19748,6917.801,95.436,540.724,538.6080000000002,0.0
52999.0,STARLINK-4217,PAYLOAD,2022-11-13 09:57:46,15.08861423,0.0001495,53.2168,136.2212,71.7484,288.3671,0.00023013,3.379e-05,0.0,0 STARLINK-4217,1 52999U 22076P   22317.41511829  .00003379  00000-0  23013-3 0  9991,2 52999  53.2168 136.2212 0001495  71.7484 288.3671 15.08861423 20306,6917.815,95.436,540.714,538.646,0.0
52999.0,STARLINK-4217,PAYLOAD,2022-11-13 17:54:41,15.08858643,0.0001571,53.2164,134.7338,60.3992,299.7157,9.0949e-05,1.16e-05,0.0,0 STARLINK-4217,1 52999U 22076P   22317.74631522  .00001160  00000-0  90949-4 0  9999,2 52999  53.2164 134.7338 0001571  60.3992 299.7157 15.08858643 19883,6917.823,95.436,540.775,538.602,0.0
52999.0,STARLINK-4217,PAYLOAD,2022-11-14 05:02:23,15.08860675,0.0001447,53.2163,132.6505,74.3278,285.7874,0.0001450999999999,2.023e-05,0.0,0 STARLINK-4217,1 52999U 22076P   22318.20998882  .00002023  00000-0  14510-3 0  9994,2 52999  53.2163 132.6505 0001447  74.3278 285.7874 15.08860675 20420,6917.816999999999,95.436,540.683,538.681,0.0
52999.0,STARLINK-4217,PAYLOAD,2022-11-14 11:23:55,15.08858763,0.0001519,53.2163,131.4614,71.6674,288.4483,0.00013148,1.806e-05,0.0,0 STARLINK-4217,1 52999U 22076P   22318.47494708  .00001806  00000-0  13148-3 0  9995,2 52999  53.2163 131.4614 0001519  71.6674 288.4483 15.08858763 19999,6917.823,95.436,540.739,538.637,0.0
52999.0,STARLINK-4217,PAYLOAD,2022-11-14 17:45:28,15.088510199999998,0.0001575,53.2164,130.2715,71.1787,288.9376,-4.583600000000001e-05,-1.018e-05,0.0,0 STARLINK-4217,1 52999U 22076P   22318.73990827 -.00001018  00000-0 -45836-4 0  9994,2 52999  53.2164 130.2715 0001575  71.1787 288.9376 15.08851020 20033,6917.847,95.437,540.8009999999998,538.622,0.0
52999.0,STARLINK-4217,PAYLOAD,2022-11-15 11:14:42,15.08846729,0.0001425,53.2174,126.9998,72.1424,287.9724,8.398700000000001e-05,1.049e-05,0.0,0 STARLINK-4217,1 52999U 22076P   22319.46854893  .00001049  00000-0  83987-4 0  9998,2 52999  53.2174 126.9998 0001425  72.1424 287.9724 15.08846729 20140,6917.86,95.437,540.711,538.739,0.0
52999.0,STARLINK-4217,PAYLOAD,2022-11-15 17:36:14,15.08850544,0.0001465,53.2174,125.8106,71.756,288.3592,0.0001159,1.558e-05,0.0,0 STARLINK-4217,1 52999U 22076P   22319.73350569  .00001558  00000-0  11590-3 0  9994,2 52999  53.2174 125.8106 0001465  71.7560 288.3592 15.08850544 20181,6917.848000000001,95.437,540.727,538.7,0.0
